OBJECT_NAME,OBJECT_ID,EPOCH,MEAN_MOTION,ECCENTRICITY,INCLINATION,RA_OF_ASC_NODE,ARG_OF_PERICENTER,MEAN_ANOMALY,EPHEMERIS_TYPE,CLASSIFICATION_TYPE,NORAD_CAT_ID,ELEMENT_SET_NO,REV_AT_EPOCH,BSTAR,MEAN_MOTION_DOT,MEAN_MOTION_DDOT
STARLINK-36411,2026-018V,2026-07-20T04:01:40.933632,15.33442869,.00005433,97.2834,265.4534,93.2573,266.8732,0,U,67608,999,2763,.19846507E-3,.6337E-4,0
STARLINK-36312,2026-018W,2026-07-20T04:33:00.328032,15.33457892,.00006682,97.2841,265.5759,168.8909,191.2348,0,U,67609,999,2764,.22015416E-3,.7042E-4,0
STARLINK-36387,2026-018X,2026-07-20T04:37:49.285920,15.33449445,.00016938,97.2826,272.2841,122.5417,237.5989,0,U,67610,999,2808,.22037004E-3,.7047E-4,0
STARLINK-36636,2026-018Y,2026-07-20T10:25:22.894464,15.33440781,.00010845,97.2840,265.7023,190.4128,169.7093,0,U,67611,999,2767,.21517216E-3,.6877E-4,0
STARLINK-36407,2026-018Z,2026-07-20T10:41:02.693184,15.33446198,.00009469,97.2836,265.8393,86.2234,273.9117,0,U,67612,999,2773,.32218464E-3,.10341E-3,0
STARLINK-36597,2026-018AA,2026-07-20T03:49:56.187840,15.33446060,.0000871,97.2849,265.4663,127.9216,232.2106,0,U,67613,999,2763,.25898251E-3,.8295E-4,0
NEONSAT-1A,2026-019A,2026-07-20T14:26:03.538176,15.08590204,.00146247,97.4298,320.6777,79.9888,280.2990,0,U,67614,999,2585,.10914971E-3,.1649E-4,0
STARLINK-36548,2026-020A,2026-07-20T10:43:58.757376,15.27579240,.00008144,43.0017,110.3503,281.8221,78.2539,0,U,67617,999,2641,.99016668E-4,.2464E-4,0
STARLINK-36601,2026-020B,2026-07-20T10:23:37.117536,15.27582210,.0001148,43.0001,110.2218,264.9413,95.1307,0,U,67618,999,2641,.31476657E-3,.841E-4,0
STARLINK-36119,2026-020C,2026-07-20T10:34:43.339296,15.27588583,.00013258,42.9987,110.2972,263.7973,96.2727,0,U,67619,999,2641,.25749109E-3,.6832E-4,0
STARLINK-36607,2026-020D,2026-07-20T11:07:49.035936,15.27583144,.0000582,43.0029,109.5927,291.2045,68.8744,0,U,67620,999,2642,.26076943E-3,.6921E-4,0
STARLINK-36615,2026-020E,2026-07-20T10:47:40.286112,15.27581144,.0000988,42.9978,110.3479,272.9160,87.1578,0,U,67621,999,2641,.22565249E-3,.5953E-4,0
STARLINK-36614,2026-020F,2026-07-20T04:03:17.121024,15.27573962,.0001276,42.9994,111.6907,274.9828,85.0878,0,U,67622,999,2637,-.17052891E-3,-.4951E-4,0
STARLINK-36600,2026-020G,2026-07-20T10:29:10.235328,15.27592825,.00015347,43.0002,110.2692,267.3667,92.7009,0,U,67623,999,2641,.33451309E-3,.8958E-4,0
STARLINK-36439,2026-020H,2026-07-19T23:06:01.454976,15.27596356,.00006672,43.0005,112.7231,225.1671,134.9127,0,U,67624,999,2634,.39518026E-3,.10634E-3,0
STARLINK-36438,2026-020J,2026-07-20T03:59:35.498112,15.27592242,.00012386,43.0009,111.6731,266.0843,93.9867,0,U,67625,999,2637,.36279709E-3,.9738E-4,0
STARLINK-36436,2026-020K,2026-07-20T01:53:58.770816,15.27588114,.00013341,43.0031,111.8690,267.3910,92.6789,0,U,67626,999,2636,.2363663E-3,.6249E-4,0
STARLINK-36502,2026-020L,2026-07-19T19:52:09.487776,15.27584842,.00014413,43.0017,113.4353,271.1195,88.9491,0,U,67627,999,2632,.26486427E-3,.7034E-4,0
STARLINK-36532,2026-020M,2026-07-20T03:35:32.071200,15.27590636,.00011356,43.0017,111.5350,287.5099,72.5629,0,U,67628,999,2637,.33616937E-3,.9003E-4,0
STARLINK-36367,2026-020N,2026-07-20T03:26:17.076480,15.27591838,.0001509,43.0038,111.4914,272.5301,87.5378,0,U,67629,999,2637,.28132213E-3,.749E-4,0
STARLINK-36416,2026-020P,2026-07-20T03:54:02.258496,15.27587973,.00014022,43.0011,111.6406,271.4845,88.5846,0,U,67630,999,2637,.37485047E-3,.1007E-3,0
STARLINK-36527,2026-020Q,2026-07-20T01:31:59.212992,15.27586186,.00010645,43.0030,112.6248,261.2287,98.8444,0,U,67631,999,2635,.19026438E-3,.4978E-4,0
STARLINK-36633,2026-020R,2026-07-20T04:19:56.762112,15.27586576,.00008152,43.0004,111.7769,264.0455,96.0304,0,U,67632,999,2637,.18421704E-3,.4812E-4,0
STARLINK-36637,2026-020S,2026-07-20T03:52:11.213760,15.27586440,.00014055,43.0009,111.6300,276.3358,83.7334,0,U,67633,999,2637,.31969996E-3,.8547E-4,0
STARLINK-36617,2026-020T,2026-07-20T11:00:37.346112,15.27589987,.0001407,43.0031,110.4297,267.4690,92.6001,0,U,67634,999,2641,.27894665E-3,.7424E-4,0
STARLINK-36627,2026-020U,2026-07-20T02:06:55.930176,15.27589534,.00014854,43.0015,111.9413,263.5165,96.5517,0,U,67635,999,2636,.28562849E-3,.7608E-4,0
STARLINK-36624,2026-020V,2026-07-20T11:05:57.669792,15.27590480,.0000408,42.9995,109.5799,308.2661,51.8154,0,U,67636,999,2642,.34023992E-3,.9115E-4,0
STARLINK-36610,2026-020W,2026-07-20T03:46:38.070048,15.27593740,.00015189,43.0020,111.5967,270.5425,89.5253,0,U,67637,999,2637,.45736978E-3,.1235E-3,0
STARLINK-36599,2026-020X,2026-07-19T19:13:30.623232,15.27592112,.00002314,42.9988,114.0864,275.8611,84.2214,0,U,67638,999,2631,.32392225E-3,.8666E-4,0
STARLINK-36595,2026-020Y,2026-07-19T04:25:23.566656,15.27596928,.00013828,43.0006,117.1871,291.7485,68.3219,0,U,67639,999,2622,.48289023E-3,.13056E-3,0
