STARLINK-36411          
1 67608U 26018V   26201.16783488  .00006337  00000+0  19847-3 0  9990
2 67608  97.2834 265.4534 0000543  93.2573 266.8732 15.33442869 27639
STARLINK-36312          
1 67609U 26018W   26201.18958713  .00007042  00000+0  22015-3 0  9993
2 67609  97.2841 265.5759 0000668 168.8909 191.2348 15.33457892 27645
STARLINK-36387          
1 67610U 26018X   26201.19293155  .00007047  00000+0  22037-3 0  9997
2 67610  97.2826 272.2841 0001693 122.5417 237.5989 15.33449445 28086
STARLINK-36636          
1 67611U 26018Y   26201.43429276  .00006877  00000+0  21517-3 0  9992
2 67611  97.2840 265.7023 0001084 190.4128 169.7093 15.33440781 27679
STARLINK-36407          
1 67612U 26018Z   26201.44517006  .00010341  00000+0  32218-3 0  9994
2 67612  97.2836 265.8393 0000946  86.2234 273.9117 15.33446198 27732
STARLINK-36597          
1 67613U 26018AA  26201.15967810  .00008295  00000+0  25898-3 0  9996
2 67613  97.2849 265.4663 0000871 127.9216 232.2106 15.33446060 27636
NEONSAT-1A              
1 67614U 26019A   26201.60142984  .00001649  00000+0  10915-3 0  9995
2 67614  97.4298 320.6777 0014624  79.9888 280.2990 15.08590204 25857
STARLINK-36548          
1 67617U 26020A   26201.44720784  .00002464  00000+0  99017-4 0  9999
2 67617  43.0017 110.3503 0000814 281.8221  78.2539 15.27579240 26413
STARLINK-36601          
1 67618U 26020B   26201.43306849  .00008410  00000+0  31477-3 0  9993
2 67618  43.0001 110.2218 0001148 264.9413  95.1307 15.27582210 26417
STARLINK-36119          
1 67619U 26020C   26201.44077939  .00006832  00000+0  25749-3 0  9991
2 67619  42.9987 110.2972 0001325 263.7973  96.2727 15.27588583 26418
STARLINK-36607          
1 67620U 26020D   26201.46376199  .00006921  00000+0  26077-3 0  9999
2 67620  43.0029 109.5927 0000582 291.2045  68.8744 15.27583144 26423
STARLINK-36615          
1 67621U 26020E   26201.44977183  .00005953  00000+0  22565-3 0  9990
2 67621  42.9978 110.3479 0000988 272.9160  87.1578 15.27581144 26417
STARLINK-36614          
1 67622U 26020F   26201.16894816 -.00004951  00000+0 -17053-3 0  9996
2 67622  42.9994 111.6907 0001276 274.9828  85.0878 15.27573962 26374
STARLINK-36600          
1 67623U 26020G   26201.43692402  .00008958  00000+0  33451-3 0  9993
2 67623  43.0002 110.2692 0001534 267.3667  92.7009 15.27592825 26412
STARLINK-36439          
1 67624U 26020H   26200.96251684  .00010634  00000+0  39518-3 0  9998
2 67624  43.0005 112.7231 0000667 225.1671 134.9127 15.27596356 26340
STARLINK-36438          
1 67625U 26020J   26201.16638308  .00009738  00000+0  36280-3 0  9990
2 67625  43.0009 111.6731 0001238 266.0843  93.9867 15.27592242 26376
STARLINK-36436          
1 67626U 26020K   26201.07915244  .00006249  00000+0  23637-3 0  9994
2 67626  43.0031 111.8690 0001334 267.3910  92.6789 15.27588114 26365
STARLINK-36502          
1 67627U 26020L   26200.82788759  .00007034  00000+0  26486-3 0  9994
2 67627  43.0017 113.4353 0001441 271.1195  88.9491 15.27584842 26329
STARLINK-36532          
1 67628U 26020M   26201.14967675  .00009003  00000+0  33617-3 0  9999
2 67628  43.0017 111.5350 0001135 287.5099  72.5629 15.27590636 26375
STARLINK-36367          
1 67629U 26020N   26201.14325320  .00007490  00000+0  28132-3 0  9999
2 67629  43.0038 111.4914 0001509 272.5301  87.5378 15.27591838 26371
STARLINK-36416          
1 67630U 26020P   26201.16252614  .00010070  00000+0  37485-3 0  9997
2 67630  43.0011 111.6406 0001402 271.4845  88.5846 15.27587973 26371
STARLINK-36527          
1 67631U 26020Q   26201.06387978  .00004978  00000+0  19026-3 0  9990
2 67631  43.0030 112.6248 0001064 261.2287  98.8444 15.27586186 26350
STARLINK-36633          
1 67632U 26020R   26201.18051808  .00004812  00000+0  18422-3 0  9990
2 67632  43.0004 111.7769 0000815 264.0455  96.0304 15.27586576 26371
STARLINK-36637          
1 67633U 26020S   26201.16124090  .00008547  00000+0  31970-3 0  9995
2 67633  43.0009 111.6300 0001405 276.3358  83.7334 15.27586440 26377
STARLINK-36617          
1 67634U 26020T   26201.45876558  .00007424  00000+0  27895-3 0  9995
2 67634  43.0031 110.4297 0001407 267.4690  92.6001 15.27589987 26411
STARLINK-36627          
1 67635U 26020U   26201.08814734  .00007608  00000+0  28563-3 0  9990
2 67635  43.0015 111.9413 0001485 263.5165  96.5517 15.27589534 26367
STARLINK-36624          
1 67636U 26020V   26201.46247303  .00009115  00000+0  34024-3 0  9999
2 67636  42.9995 109.5799 0000408 308.2661  51.8154 15.27590480 26425
STARLINK-36610          
1 67637U 26020W   26201.15738507  .00012350  00000+0  45737-3 0  9995
2 67637  43.0020 111.5967 0001518 270.5425  89.5253 15.27593740 26373
STARLINK-36599          
1 67638U 26020X   26200.80104888  .00008666  00000+0  32392-3 0  9994
2 67638  42.9988 114.0864 0000231 275.8611  84.2214 15.27592112 26310
STARLINK-36595          
1 67639U 26020Y   26200.18430054  .00013056  00000+0  48289-3 0  9994
2 67639  43.0006 117.1871 0001382 291.7485  68.3219 15.27596928 26227
